IRIDIUM 116             
1 43072U 17083C   24024.38752839  .00000047  00000+0  96207-5 0  9991
2 43072  86.3997 327.6217 0002191  89.9911 270.1536 14.34214731318789
IRIDIUM 130             
1 43073U 17083D   24024.35582357  .00000009  00000+0 -38199-5 0  9990
2 43073  86.4004 327.8256 0001934  85.0709 275.0707 14.34217434318722
IRIDIUM 151             
1 43074U 17083E   24024.33045277  .00000624  00000+0  21572-3 0  9991
2 43074  86.3998 327.6836 0002472  85.4162 274.7317 14.34220293318743
IRIDIUM 134             
1 43075U 17083F   24024.36850423  .00000336  00000+0  11281-3 0  9998
2 43075  86.3998 327.6636 0001917  85.2075 274.9340 14.34217436318716
IRIDIUM 137             
1 43076U 17083G   24024.38119610  .00000149  00000+0  46275-4 0  9991
2 43076  86.4001 327.7337 0002330  96.5008 263.6453 14.34216609318781
IRIDIUM 141             
1 43077U 17083H   24024.37484142  .00000625  00000+0  21612-3 0  9992
2 43077  86.3997 327.6167 0002170  83.9288 276.2155 14.34215149318784
IRIDIUM 153             
1 43078U 17083J   24024.11772145  .00000343  00000+0  11544-3 0  9998
2 43078  86.3978 296.1766 0002463  75.9840 284.1629 14.34218297319859
IRIDIUM 131             
1 43079U 17083K   24024.36216560  .00000287  00000+0  95305-4 0  9995
2 43079  86.4002 327.7493 0002139  86.3854 273.7587 14.34218267318716
